[{"OBJECT_NAME":"SCD 1","OBJECT_ID":"1993-009B","EPOCH":"2026-02-01T21:36:03.224448","MEAN_MOTION":14.46044862,"ECCENTRICITY":0.00421157,"INCLINATION":24.9705,"RA_OF_ASC_NODE":322.8524,"ARG_OF_PERICENTER":146.0135,"MEAN_ANOMALY":268.0262,"EPHEMERIS_TYPE":0,"CLASSIFICATION_TYPE":"U","NORAD_CAT_ID":22490,"ELEMENT_SET_NO":999,"REV_AT_EPOCH":74151,"BSTAR":8.4690945e-5,"MEAN_MOTION_DOT":4.96e-6,"MEAN_MOTION_DDOT":0},{"OBJECT_NAME":"TECHSAT 1B (GO-32)","OBJECT_ID":"1998-043D","EPOCH":"2026-02-01T21:58:14.968992","MEAN_MOTION":14.24395195,"ECCENTRICITY":5.021e-5,"INCLINATION":98.9977,"RA_OF_ASC_NODE":22.3244,"ARG_OF_PERICENTER":197.5452,"MEAN_ANOMALY":162.5709,"EPHEMERIS_TYPE":0,"CLASSIFICATION_TYPE":"U","NORAD_CAT_ID":25397,"ELEMENT_SET_NO":999,"REV_AT_EPOCH":43207,"BSTAR":5.6799353e-5,"MEAN_MOTION_DOT":8.5e-7,"MEAN_MOTION_DDOT":0},{"OBJECT_NAME":"SCD 2","OBJECT_ID":"1998-060A","EPOCH":"2026-02-01T20:46:01.822368","MEAN_MOTION":14.45458727,"ECCENTRICITY":0.00168886,"INCLINATION":24.9936,"RA_OF_ASC_NODE":186.6511,"ARG_OF_PERICENTER":132.5856,"MEAN_ANOMALY":24.4783,"EPHEMERIS_TYPE":0,"CLASSIFICATION_TYPE":"U","NORAD_CAT_ID":25504,"ELEMENT_SET_NO":999,"REV_AT_EPOCH":44072,"BSTAR":8.4253294e-5,"MEAN_MOTION_DOT":4.84e-6,"MEAN_MOTION_DDOT":0},{"OBJECT_NAME":"DLR-TUBSAT","OBJECT_ID":"1999-029B","EPOCH":"2026-02-01T22:07:49.733760","MEAN_MOTION":14.52381842,"ECCENTRICITY":0.00150307,"INCLINATION":98.6617,"RA_OF_ASC_NODE":24.0303,"ARG_OF_PERICENTER":44.8478,"MEAN_ANOMALY":315.3928,"EPHEMERIS_TYPE":0,"CLASSIFICATION_TYPE":"U","NORAD_CAT_ID":25757,"ELEMENT_SET_NO":999,"REV_AT_EPOCH":41361,"BSTAR":4.5608994e-5,"MEAN_MOTION_DOT":1.38e-6,"MEAN_MOTION_DDOT":0},{"OBJECT_NAME":"TERRA","OBJECT_ID":"1999-068A","EPOCH":"2026-02-01T21:42:57.489984","MEAN_MOTION":14.60973328,"ECCENTRICITY":0.00011279,"INCLINATION":97.9667,"RA_OF_ASC_NODE":87.6929,"ARG_OF_PERICENTER":319.2821,"MEAN_ANOMALY":146.6824,"EPHEMERIS_TYPE":0,"CLASSIFICATION_TYPE":"U","NORAD_CAT_ID":25994,"ELEMENT_SET_NO":999,"REV_AT_EPOCH":38985,"BSTAR":0.00010420115,"MEAN_MOTION_DOT":4.66e-6,"MEAN_MOTION_DDOT":0},{"OBJECT_NAME":"MAROC-TUBSAT","OBJECT_ID":"2001-056D","EPOCH":"2026-02-01T22:36:27.524736","MEAN_MOTION":13.70256085,"ECCENTRICITY":0.00204512,"INCLINATION":99.7956,"RA_OF_ASC_NODE":207.2921,"ARG_OF_PERICENTER":128.0899,"MEAN_ANOMALY":36.5276,"EPHEMERIS_TYPE":0,"CLASSIFICATION_TYPE":"U","NORAD_CAT_ID":27004,"ELEMENT_SET_NO":999,"REV_AT_EPOCH":20766,"BSTAR":2.7636422e-5,"MEAN_MOTION_DOT":-2.2e-7,"MEAN_MOTION_DDOT":0},{"OBJECT_NAME":"AQUA","OBJECT_ID":"2002-022A","EPOCH":"2026-02-01T22:51:37.560384","MEAN_MOTION":14.61882673,"ECCENTRICITY":0.00017128,"INCLINATION":98.411,"RA_OF_ASC_NODE":359.6849,"ARG_OF_PERICENTER":59.1978,"MEAN_ANOMALY":337.0718,"EPHEMERIS_TYPE":0,"CLASSIFICATION_TYPE":"U","NORAD_CAT_ID":27424,"ELEMENT_SET_NO":999,"REV_AT_EPOCH":26351,"BSTAR":0.00022881446,"MEAN_MOTION_DOT":1.095e-5,"MEAN_MOTION_DDOT":0},{"OBJECT_NAME":"IRS-P6 (RESOURCESAT-1)","OBJECT_ID":"2003-046A","EPOCH":"2026-02-02T00:07:42.083616","MEAN_MOTION":14.36094393,"ECCENTRICITY":0.00648467,"INCLINATION":98.2115,"RA_OF_ASC_NODE":76.0196,"ARG_OF_PERICENTER":28.8962,"MEAN_ANOMALY":85.627,"EPHEMERIS_TYPE":0,"CLASSIFICATION_TYPE":"U","NORAD_CAT_ID":28051,"ELEMENT_SET_NO":999,"REV_AT_EPOCH":16112,"BSTAR":8.635136e-6,"MEAN_MOTION_DOT":-1.5e-7,"MEAN_MOTION_DDOT":0},{"OBJECT_NAME":"SHIYAN-1 (SY-1)","OBJECT_ID":"2004-012A","EPOCH":"2026-02-01T17:03:46.562112","MEAN_MOTION":15.2985021,"ECCENTRICITY":0.00069226,"INCLINATION":97.885,"RA_OF_ASC_NODE":102.2958,"ARG_OF_PERICENTER":131.5323,"MEAN_ANOMALY":228.6511,"EPHEMERIS_TYPE":0,"CLASSIFICATION_TYPE":"U","NORAD_CAT_ID":28220,"ELEMENT_SET_NO":999,"REV_AT_EPOCH":19035,"BSTAR":0.00046029943,"MEAN_MOTION_DOT":0.00013241,"MEAN_MOTION_DDOT":0},{"OBJECT_NAME":"AURA","OBJECT_ID":"2004-026A","EPOCH":"2026-02-01T21:08:36.902688","MEAN_MOTION":14.61067122,"ECCENTRICITY":0.00014217,"INCLINATION":98.3253,"RA_OF_ASC_NODE":348.3684,"ARG_OF_PERICENTER":66.7921,"MEAN_ANOMALY":293.3429,"EPHEMERIS_TYPE":0,"CLASSIFICATION_TYPE":"U","NORAD_CAT_ID":28376,"ELEMENT_SET_NO":999,"REV_AT_EPOCH":14645,"BSTAR":0.00023518455,"MEAN_MOTION_DOT":1.107e-5,"MEAN_MOTION_DDOT":0},{"OBJECT_NAME":"IRS-P5 (CARTOSAT-1)","OBJECT_ID":"2005-017A","EPOCH":"2026-02-01T23:18:53.512416","MEAN_MOTION":14.90627073,"ECCENTRICITY":0.00023266,"INCLINATION":97.545,"RA_OF_ASC_NODE":62.1085,"ARG_OF_PERICENTER":114.7371,"MEAN_ANOMALY":245.409,"EPHEMERIS_TYPE":0,"CLASSIFICATION_TYPE":"U","NORAD_CAT_ID":28649,"ELEMENT_SET_NO":999,"REV_AT_EPOCH":12367,"BSTAR":0.00016323548,"MEAN_MOTION_DOT":1.546e-5,"MEAN_MOTION_DDOT":0},{"OBJECT_NAME":"SINAH 1","OBJECT_ID":"2005-043D","EPOCH":"2026-02-01T22:36:56.556000","MEAN_MOTION":14.64030105,"ECCENTRICITY":0.00140815,"INCLINATION":98.2634,"RA_OF_ASC_NODE":166.6486,"ARG_OF_PERICENTER":344.6512,"MEAN_ANOMALY":15.4261,"EPHEMERIS_TYPE":0,"CLASSIFICATION_TYPE":"U","NORAD_CAT_ID":28893,"ELEMENT_SET_NO":999,"REV_AT_EPOCH":8073,"BSTAR":9.4809591e-5,"MEAN_MOTION_DOT":4.48e-6,"MEAN_MOTION_DDOT":0},{"OBJECT_NAME":"RESURS-DK 1","OBJECT_ID":"2006-021A","EPOCH":"2026-02-01T22:59:44.452032","MEAN_MOTION":15.12520079,"ECCENTRICITY":0.00050393,"INCLINATION":69.9353,"RA_OF_ASC_NODE":329.4346,"ARG_OF_PERICENTER":210.827,"MEAN_ANOMALY":149.2601,"EPHEMERIS_TYPE":0,"CLASSIFICATION_TYPE":"U","NORAD_CAT_ID":29228,"ELEMENT_SET_NO":999,"REV_AT_EPOCH":8212,"BSTAR":0.00015874249,"MEAN_MOTION_DOT":2.665e-5,"MEAN_MOTION_DDOT":0},{"OBJECT_NAME":"ARIRANG-2 (KOMPSAT-2)","OBJECT_ID":"2006-031A","EPOCH":"2026-02-01T23:21:39.324384","MEAN_MOTION":14.64554354,"ECCENTRICITY":0.00152065,"INCLINATION":97.8272,"RA_OF_ASC_NODE":223.9539,"ARG_OF_PERICENTER":138.5024,"MEAN_ANOMALY":25.8315,"EPHEMERIS_TYPE":0,"CLASSIFICATION_TYPE":"U","NORAD_CAT_ID":29268,"ELEMENT_SET_NO":999,"REV_AT_EPOCH":4168,"BSTAR":0.0001084321,"MEAN_MOTION_DOT":5.31e-6,"MEAN_MOTION_DDOT":0},{"OBJECT_NAME":"LAPAN-TUBSAT","OBJECT_ID":"2007-001A","EPOCH":"2026-02-01T23:09:46.139040","MEAN_MOTION":14.85772352,"ECCENTRICITY":0.00107278,"INCLINATION":98.1291,"RA_OF_ASC_NODE":29.1906,"ARG_OF_PERICENTER":266.459,"MEAN_ANOMALY":93.5398,"EPHEMERIS_TYPE":0,"CLASSIFICATION_TYPE":"U","NORAD_CAT_ID":29709,"ELEMENT_SET_NO":999,"REV_AT_EPOCH":3107,"BSTAR":0.00010217252,"MEAN_MOTION_DOT":8.31e-6,"MEAN_MOTION_DDOT":0}]
