SCD 1                   
1 22490U 93009B   26032.90003732  .00000496  00000+0  84691-4 0  9995
2 22490  24.9705 322.8524 0042115 146.0135 268.0262 14.46044862741518
TECHSAT 1B (GO-32)      
1 25397U 98043D   26032.91545103  .00000085  00000+0  56799-4 0  9993
2 25397  98.9977  22.3244 0000502 197.5452 162.5709 14.24395195432073
SCD 2                   
1 25504U 98060A   26032.86529887  .00000484  00000+0  84253-4 0  9996
2 25504  24.9936 186.6511 0016888 132.5856  24.4783 14.45458727440722
DLR-TUBSAT              
1 25757U 99029B   26032.92210340  .00000138  00000+0  45609-4 0  9998
2 25757  98.6617  24.0303 0015030  44.8478 315.3928 14.52381842413615
TERRA                   
1 25994U 99068A   26032.90483206  .00000466  00000+0  10420-3 0  9991
2 25994  97.9667  87.6929 0001127 319.2821 146.6824 14.60973328389850
MAROC-TUBSAT            
1 27004U 01056D   26032.94198524 -.00000022  00000+0  27636-4 0  9992
2 27004  99.7956 207.2921 0020451 128.0899  36.5276 13.70256085207669
AQUA                    
1 27424U 02022A   26032.95251806  .00001095  00000+0  22881-3 0  9992
2 27424  98.4110 359.6849 0001712  59.1978 337.0718 14.61882673263510
IRS-P6 (RESOURCESAT-1)  
1 28051U 03046A   26033.00534819 -.00000015  00000+0  86351-5 0  9997
2 28051  98.2115  76.0196 0064846  28.8962  85.6270 14.36094393161127
SHIYAN-1 (SY-1)         
1 28220U 04012A   26032.71095558  .00013241  00000+0  46030-3 0  9990
2 28220  97.8850 102.2958 0006922 131.5323 228.6511 15.29850210190353
AURA                    
1 28376U 04026A   26032.88098267  .00001107  00000+0  23518-3 0  9999
2 28376  98.3253 348.3684 0001421  66.7921 293.3429 14.61067122146455
IRS-P5 (CARTOSAT-1)     
1 28649U 05017A   26032.97145269  .00001546  00000+0  16324-3 0  9992
2 28649  97.5450  62.1085 0002326 114.7371 245.4090 14.90627073123672
SINAH 1                 
1 28893U 05043D   26032.94232125  .00000448  00000+0  94810-4 0  9994
2 28893  98.2634 166.6486 0014081 344.6512  15.4261 14.64030105 80731
RESURS-DK 1             
1 29228U 06021A   26032.95815338  .00002665  00000+0  15874-3 0  9993
2 29228  69.9353 329.4346 0005039 210.8270 149.2601 15.12520079 82126
ARIRANG-2 (KOMPSAT-2)   
1 29268U 06031A   26032.97337181  .00000531  00000+0  10843-3 0  9996
2 29268  97.8272 223.9539 0015206 138.5024  25.8315 14.64554354 41688
LAPAN-TUBSAT            
1 29709U 07001A   26032.96511735  .00000831  00000+0  10217-3 0  9990
2 29709  98.1291  29.1906 0010727 266.4590  93.5398 14.85772352 31077
